{"fetched_at":"2026-03-29T16:36:15Z","count":15609,"tles":[{"name":"STARLINK-6336","line1":"1 56788U 23078X   26087.85564754  .00000679  00000+0  64684-4 0  9994","line2":"2 56788  69.9978 276.1597 0003107 267.5356  92.5448 14.98341949156046","category":"Starlink"}]}