{
  "norad_id": 56788,
  "name": "STARLINK-6336",
  "history": [
    {
      "epoch": "2026-03-28T20:32:07.947456Z",
      "apogee_km": 574.1783533436856,
      "perigee_km": 569.8595264426358,
      "latitude_deg": 6.421481376340553e-05,
      "longitude_deg": 141.8565082389218,
      "height_km": 574.5392132278904,
      "semi_major_axis_km": 6950.15593989316,
      "eccentricity": 0.0003107,
      "inclination_deg": 69.9978,
      "raan_deg": 276.1597,
      "arg_perigee_deg": 267.5356,
      "mean_anomaly_deg": 92.5448,
      "mean_motion_rev_day": 14.98341949
    }
  ]
}